{
    "links": {
        "self": "http://www.neowsapp.com/rest/v1/neo/3769807?api_key=iIulBulltgU6a56xZRHN4H3l9WmuAYTsLGpBGhQ2"
    },
    "id": "3769807",
    "neo_reference_id": "3769807",
    "name": "(2017 DM34)",
    "designation": "2017 DM34",
    "nasa_jpl_url": "http://ssd.jpl.nasa.gov/sbdb.cgi?sstr=3769807",
    "absolute_magnitude_h": 24.0,
    "estimated_diameter": {
        "kilometers": {
            "estimated_diameter_min": 0.0421264611,
            "estimated_diameter_max": 0.0941976306
        },
        "meters": {
            "estimated_diameter_min": 42.1264610556,
            "estimated_diameter_max": 94.1976305719
        },
        "miles": {
            "estimated_diameter_min": 0.0261761612,
            "estimated_diameter_max": 0.0585316759
        },
        "feet": {
            "estimated_diameter_min": 138.2101784897,
            "estimated_diameter_max": 309.0473542854
        }
    },
    "is_potentially_hazardous_asteroid": false,
    "close_approach_data": [
        {
            "close_approach_date": "2017-02-17",
            "close_approach_date_full": "2017-Feb-17 14:24",
            "epoch_date_close_approach": 1487341440000,
            "relative_velocity": {
                "kilometers_per_second": "5.99002808",
                "kilometers_per_hour": "21564.1010879665",
                "miles_per_hour": "13399.0938121312"
            },
            "miss_distance": {
                "astronomical": "0.1258011276",
                "lunar": "48.9366386364",
                "kilometers": "18819580.732558212",
                "miles": "11693945.2117668456"
            },
            "orbiting_body": "Earth"
        }
    ],
    "orbital_data": {
        "orbit_id": "9",
        "orbit_determination_date": "2017-04-06 08:20:05",
        "first_observation_date": "2017-02-21",
        "last_observation_date": "2017-03-22",
        "data_arc_in_days": 29,
        "observations_used": 63,
        "orbit_uncertainty": "7",
        "minimum_orbit_intersection": ".126139",
        "jupiter_tisserand_invariant": "3.440",
        "epoch_osculation": "2459000.5",
        "eccentricity": ".5051148336436516",
        "semi_major_axis": "2.249561288038447",
        "inclination": "7.009640095308654",
        "ascending_node_longitude": "153.199877166841",
        "orbital_period": "1232.381503643757",
        "perihelion_distance": "1.113274512259708",
        "perihelion_argument": "351.7285452273937",
        "aphelion_distance": "3.385848063817186",
        "perihelion_time": "2459030.399316307122",
        "mean_anomaly": "351.2658914153297",
        "mean_motion": ".2921173345555703",
        "equinox": "J2000",
        "orbit_class": {
            "orbit_class_type": "AMO",
            "orbit_class_description": "Near-Earth asteroid orbits similar to that of 1221 Amor",
            "orbit_class_range": "1.017 AU < q (perihelion) < 1.3 AU"
        }
    },
    "is_sentry_object": false
}